start=new Date('2022-07-17T00:00:00.000Z').valueOf();
sats=[{"PERIAPSIS":"546.364","OBJECT_NAME":"STARLINK-2041","CLASSIFICATION_TYPE":"U","MEAN_MOTION":"15.06407912","OBJECT_ID":"2021-012AP","PERIOD":"95.592","GP_ID":"208270062","EPOCH":"2022-07-16T17:19:51.540384","SEMIMAJOR_AXIS":"6925.324","MEAN_ANOMALY":"264.3873","MEAN_MOTION_DOT":"0.00003704","REV_AT_EPOCH":"7922","RCS_SIZE":"LARGE","REF_FRAME":"TEME","CENTER_NAME":"EARTH","INCLINATION":"53.0526","SITE":"AFETR","OBJECT_TYPE":"PAYLOAD","EPHEMERIS_TYPE":"0","BSTAR":"0.00026736000000","APOAPSIS":"548.015","COUNTRY_CODE":"US","ECCENTRICITY":"0.00011920","RA_OF_ASC_NODE":"291.0666","ARG_OF_PERICENTER":"95.7252","TLE_LINE2":"2 47657  53.0526 291.0666 0001192  95.7252 264.3873 15.06407912 79223","MEAN_ELEMENT_THEORY":"SGP4","TIME_SYSTEM":"UTC","LAUNCH_DATE":"2021-02-16","ELEMENT_SET_NO":"999","MEAN_MOTION_DDOT":"0.0000000000000","FILE":"3515618","DECAY_DATE":null,"TLE_LINE1":"1 47657U 21012AP  22197.72212431  .00003704  00000-0  26736-3 0  9999","NORAD_CAT_ID":"47657"},{"OBJECT_TYPE":"PAYLOAD","APOAPSIS":"548.230","BSTAR":"0.00006534900000","EPHEMERIS_TYPE":"0","REF_FRAME":"TEME","SITE":"AFETR","INCLINATION":"53.0551","CENTER_NAME":"EARTH","SEMIMAJOR_AXIS":"6925.340","EPOCH":"2022-07-16T18:44:47.420160","GP_ID":"208269813","RCS_SIZE":"LARGE","REV_AT_EPOCH":"7925","MEAN_MOTION_DOT":"0.00000692","MEAN_ANOMALY":"287.9036","OBJECT_NAME":"STARLINK-2042","PERIAPSIS":"546.180","PERIOD":"95.592","OBJECT_ID":"2021-012AQ","MEAN_MOTION":"15.06402787","CLASSIFICATION_TYPE":"U","TLE_LINE1":"1 47658U 21012AQ  22197.78110440  .00000692  00000-0  65349-4 0  9990","DECAY_DATE":null,"NORAD_CAT_ID":"47658","ELEMENT_SET_NO":"999","FILE":"3515618","MEAN_MOTION_DDOT":"0.0000000000000","MEAN_ELEMENT_THEORY":"SGP4","TLE_LINE2":"2 47658  53.0551 290.7984 0001480  72.2114 287.9036 15.06402787 79258","LAUNCH_DATE":"2021-02-16","TIME_SYSTEM":"UTC","COUNTRY_CODE":"US","ARG_OF_PERICENTER":"72.2114","RA_OF_ASC_NODE":"290.7984","ECCENTRICITY":"0.00014800"},{"SITE":"AFETR","INCLINATION":"53.0545","CENTER_NAME":"EARTH","REF_FRAME":"TEME","BSTAR":"-0.00003250200000","EPHEMERIS_TYPE":"0","APOAPSIS":"548.218","OBJECT_TYPE":"PAYLOAD","PERIOD":"95.591","OBJECT_ID":"2021-012AR","CLASSIFICATION_TYPE":"U","MEAN_MOTION":"15.06412022","OBJECT_NAME":"STARLINK-2043","PERIAPSIS":"546.136","MEAN_ANOMALY":"286.6894","MEAN_MOTION_DOT":"-0.00000766","REV_AT_EPOCH":"8088","RCS_SIZE":"LARGE","EPOCH":"2022-07-16T17:46:23.494080","SEMIMAJOR_AXIS":"6925.312","GP_ID":"208271063","MEAN_MOTION_DDOT":"0.0000000000000","FILE":"3515618","ELEMENT_SET_NO":"999","NORAD_CAT_ID":"47659","DECAY_DATE":null,"TLE_LINE1":"1 47659U 21012AR  22197.74054970 -.00000766  00000-0 -32502-4 0  9991","ECCENTRICITY":"0.00015030","RA_OF_ASC_NODE":"170.9810","ARG_OF_PERICENTER":"73.4260","COUNTRY_CODE":"US","TIME_SYSTEM":"UTC","LAUNCH_DATE":"2021-02-16","TLE_LINE2":"2 47659  53.0545 170.9810 0001503  73.4260 286.6894 15.06412022 80882","MEAN_ELEMENT_THEORY":"SGP4"},{"FILE":"3515618","MEAN_MOTION_DDOT":"0.0000000000000","ELEMENT_SET_NO":"999","NORAD_CAT_ID":"47660","TLE_LINE1":"1 47660U 21012AS  22197.62729024  .00002384  00000-0  17882-3 0  9998","DECAY_DATE":null,"ARG_OF_PERICENTER":"65.3500","ECCENTRICITY":"0.00015350","RA_OF_ASC_NODE":"162.1135","COUNTRY_CODE":"US","LAUNCH_DATE":"2021-02-16","TIME_SYSTEM":"UTC","MEAN_ELEMENT_THEORY":"SGP4","TLE_LINE2":"2 47660  53.0559 162.1135 0001535  65.3500 294.7648 15.06407701 81004","SITE":"AFETR","CENTER_NAME":"EARTH","INCLINATION":"53.0559","REF_FRAME":"TEME","APOAPSIS":"548.253","BSTAR":"0.00017882000000","EPHEMERIS_TYPE":"0","OBJECT_TYPE":"PAYLOAD","PERIOD":"95.592","OBJECT_ID":"2021-012AS","MEAN_MOTION":"15.06407701","CLASSIFICATION_TYPE":"U","OBJECT_NAME":"STARLINK-2044","PERIAPSIS":"546.127","REV_AT_EPOCH":"8100","RCS_SIZE":"LARGE","MEAN_MOTION_DOT":"0.00002384","MEAN_ANOMALY":"294.7648","SEMIMAJOR_AXIS":"6925.325","EPOCH":"2022-07-16T15:03:17.876736","GP_ID":"208270804"},{"TLE_LINE2":"2 47661  53.0532 271.5519 0001473  64.6420 295.4721 15.06398505 79470","MEAN_ELEMENT_THEORY":"SGP4","TIME_SYSTEM":"UTC","LAUNCH_DATE":"2021-02-16","COUNTRY_CODE":"US","RA_OF_ASC_NODE":"271.5519","ECCENTRICITY":"0.00014730","ARG_OF_PERICENTER":"64.6420","DECAY_DATE":null,"TLE_LINE1":"1 47661U 21012AT  22197.61339996  .00003537  00000-0  25625-3 0  9998","NORAD_CAT_ID":"47661","ELEMENT_SET_NO":"999","MEAN_MOTION_DDOT":"0.0000000000000","FILE":"3515618","GP_ID":"208269563","EPOCH":"2022-07-16T14:43:17.756544","SEMIMAJOR_AXIS":"6925.353","MEAN_ANOMALY":"295.4721","MEAN_MOTION_DOT":"0.00003537","RCS_SIZE":"LARGE","REV_AT_EPOCH":"7947","PERIAPSIS":"546.198","OBJECT_NAME":"STARLINK-2051","CLASSIFICATION_TYPE":"U","MEAN_MOTION":"15.06398505","OBJECT_ID":"2021-012AT","PERIOD":"95.592","OBJECT_TYPE":"PAYLOAD","EPHEMERIS_TYPE":"0","BSTAR":"0.00025625000000","APOAPSIS":"548.238","REF_FRAME":"TEME","CENTER_NAME":"EARTH","INCLINATION":"53.0532","SITE":"AFETR"},{"OBJECT_ID":"2021-012AU","PERIOD":"95.592","CLASSIFICATION_TYPE":"U","MEAN_MOTION":"15.06402796","OBJECT_NAME":"STARLINK-2052","PERIAPSIS":"546.218","MEAN_MOTION_DOT":"0.00003974","MEAN_ANOMALY":"295.3641","RCS_SIZE":"LARGE","REV_AT_EPOCH":"7949","EPOCH":"2022-07-16T14:15:23.893920","SEMIMAJOR_AXIS":"6925.340","GP_ID":"208270313","SITE":"AFETR","CENTER_NAME":"EARTH","INCLINATION":"53.0532","REF_FRAME":"TEME","EPHEMERIS_TYPE":"0","BSTAR":"0.00028554000000","APOAPSIS":"548.192","OBJECT_TYPE":"PAYLOAD","ECCENTRICITY":"0.00014250","RA_OF_ASC_NODE":"271.6390","ARG_OF_PERICENTER":"64.7495","COUNTRY_CODE":"US","TIME_SYSTEM":"UTC","LAUNCH_DATE":"2021-02-16","TLE_LINE2":"2 47662  53.0532 271.6390 0001425  64.7495 295.3641 15.06402796 79499","MEAN_ELEMENT_THEORY":"SGP4","MEAN_MOTION_DDOT":"0.0000000000000","FILE":"3515618","ELEMENT_SET_NO":"999","NORAD_CAT_ID":"47662","DECAY_DATE":null,"TLE_LINE1":"1 47662U 21012AU  22197.59402655  .00003974  00000-0  28554-3 0  9998"},{"TIME_SYSTEM":"UTC","LAUNCH_DATE":"2021-02-16","TLE_LINE2":"2 47663  53.0524 191.3592 0001813  56.5034 303.6128 15.06397391 80626","MEAN_ELEMENT_THEORY":"SGP4","ECCENTRICITY":"0.00018130","RA_OF_ASC_NODE":"191.3592","ARG_OF_PERICENTER":"56.5034","COUNTRY_CODE":"US","NORAD_CAT_ID":"47663","DECAY_DATE":null,"TLE_LINE1":"1 47663U 21012AV  22197.72402049  .00002166  00000-0  16426-3 0  9998","MEAN_MOTION_DDOT":"0.0000000000000","FILE":"3515618","ELEMENT_SET_NO":"999","MEAN_MOTION_DOT":"0.00002166","MEAN_ANOMALY":"303.6128","RCS_SIZE":"LARGE","REV_AT_EPOCH":"8062","GP_ID":"208270564","EPOCH":"2022-07-16T17:22:35.370336","SEMIMAJOR_AXIS":"6925.357","CLASSIFICATION_TYPE":"U","MEAN_MOTION":"15.06397391","PERIOD":"95.592","OBJECT_ID":"2021-012AV","PERIAPSIS":"545.966","OBJECT_NAME":"STARLINK-2053","EPHEMERIS_TYPE":"0","BSTAR":"0.00016426000000","APOAPSIS":"548.477","OBJECT_TYPE":"PAYLOAD","CENTER_NAME":"EARTH","INCLINATION":"53.0524","SITE":"AFETR","REF_FRAME":"TEME"},{"TLE_LINE2":"2 47664  53.0531 271.0404 0001633  69.9903 290.1261 15.06416342 79518","MEAN_ELEMENT_THEORY":"SGP4","TIME_SYSTEM":"UTC","LAUNCH_DATE":"2021-02-16","COUNTRY_CODE":"US","ECCENTRICITY":"0.00016330","RA_OF_ASC_NODE":"271.0404","ARG_OF_PERICENTER":"69.9903","DECAY_DATE":null,"TLE_LINE1":"1 47664U 21012AW  22197.72766731 -.00000029  00000-0  16949-4 0  9998","NORAD_CAT_ID":"47664","ELEMENT_SET_NO":"999","MEAN_MOTION_DDOT":"0.0000000000000","FILE":"3515618","GP_ID":"208271304","EPOCH":"2022-07-16T17:27:50.455584","SEMIMAJOR_AXIS":"6925.298","MEAN_MOTION_DOT":"-0.00000029","MEAN_ANOMALY":"290.1261","REV_AT_EPOCH":"7951","RCS_SIZE":"LARGE","PERIAPSIS":"546.033","OBJECT_NAME":"STARLINK-2054","CLASSIFICATION_TYPE":"U","MEAN_MOTION":"15.06416342","OBJECT_ID":"2021-012AW","PERIOD":"95.591","OBJECT_TYPE":"PAYLOAD","EPHEMERIS_TYPE":"0","BSTAR":"0.00001694900000","APOAPSIS":"548.294","REF_FRAME":"TEME","INCLINATION":"53.0531","CENTER_NAME":"EARTH","SITE":"AFETR"},{"MEAN_ANOMALY":"246.9418","MEAN_MOTION_DOT":"0.00004062","RCS_SIZE":"LARGE","REV_AT_EPOCH":"7955","GP_ID":"208270063","EPOCH":"2022-07-16T13:48:14.700096","SEMIMAJOR_AXIS":"6925.306","CLASSIFICATION_TYPE":"U","MEAN_MOTION":"15.06413994","PERIOD":"95.591","OBJECT_ID":"2021-012AX","PERIAPSIS":"546.315","OBJECT_NAME":"STARLINK-2056","BSTAR":"0.00029134000000","EPHEMERIS_TYPE":"0","APOAPSIS":"548.026","OBJECT_TYPE":"PAYLOAD","CENTER_NAME":"EARTH","INCLINATION":"53.0534","SITE":"AFETR","REF_FRAME":"TEME","TIME_SYSTEM":"UTC","LAUNCH_DATE":"2021-02-16","TLE_LINE2":"2 47665  53.0534 266.7674 0001235 113.1701 246.9418 15.06413994 79555","MEAN_ELEMENT_THEORY":"SGP4","ECCENTRICITY":"0.00012350","RA_OF_ASC_NODE":"266.7674","ARG_OF_PERICENTER":"113.1701","COUNTRY_CODE":"US","NORAD_CAT_ID":"47665","DECAY_DATE":null,"TLE_LINE1":"1 47665U 21012AX  22197.57517014  .00004062  00000-0  29134-3 0  9999","MEAN_MOTION_DDOT":"0.0000000000000","FILE":"3515618","ELEMENT_SET_NO":"999"},{"REF_FRAME":"TEME","CENTER_NAME":"EARTH","INCLINATION":"53.0532","SITE":"AFETR","OBJECT_TYPE":"PAYLOAD","APOAPSIS":"548.271","BSTAR":"0.00024126000000","EPHEMERIS_TYPE":"0","PERIAPSIS":"546.171","OBJECT_NAME":"STARLINK-2057","MEAN_MOTION":"15.06397458","CLASSIFICATION_TYPE":"U","PERIOD":"95.592","OBJECT_ID":"2021-012AY","GP_ID":"208269814","SEMIMAJOR_AXIS":"6925.356","EPOCH":"2022-07-16T13:42:58.876128","RCS_SIZE":"LARGE","REV_AT_EPOCH":"7955","MEAN_ANOMALY":"290.6466","MEAN_MOTION_DOT":"0.00003314","ELEMENT_SET_NO":"999","FILE":"3515618","MEAN_MOTION_DDOT":"0.0000000000000","TLE_LINE1":"1 47666U 21012AY  22197.57151477  .00003314  00000-0  24126-3 0  9992","DECAY_DATE":null,"NORAD_CAT_ID":"47666","COUNTRY_CODE":"US","ARG_OF_PERICENTER":"69.4686","RA_OF_ASC_NODE":"267.0885","ECCENTRICITY":"0.00015160","MEAN_ELEMENT_THEORY":"SGP4","TLE_LINE2":"2 47666  53.0532 267.0885 0001516  69.4686 290.6466 15.06397458 79554","LAUNCH_DATE":"2021-02-16","TIME_SYSTEM":"UTC"}];
